OBJECT_NAME,OBJECT_ID,EPOCH,MEAN_MOTION,ECCENTRICITY,INCLINATION,RA_OF_ASC_NODE,ARG_OF_PERICENTER,MEAN_ANOMALY,EPHEMERIS_TYPE,CLASSIFICATION_TYPE,NORAD_CAT_ID,ELEMENT_SET_NO,REV_AT_EPOCH,BSTAR,MEAN_MOTION_DOT,MEAN_MOTION_DDOT
RESURS-DK 1,2006-021A,2026-06-05T20:43:46.485408,15.13165500,.0006208,69.9335,8.8639,301.2031,58.8526,0,U,29228,999,10086,.15888E-3,.2717E-4,0
CZ-4B R/B,2006-046C,2026-06-05T09:15:16.805088,15.17693281,.00316296,97.5456,201.0298,325.6747,34.2442,0,U,29507,999,7334,.21303306E-3,.4277E-4,0
COSMO-SKYMED 1,2007-023A,2026-06-06T04:09:52.955712,14.97052439,.0001364,97.8861,348.9377,81.4386,278.6989,0,U,31598,999,2814,.21903E-3,.2464E-4,0
COSMOS 2428,2007-029A,2026-06-05T19:35:31.846848,14.12930805,.00072924,70.9378,18.3531,156.9125,203.2325,0,U,31792,999,97654,-.71397331E-4,-.181E-5,0
KORONAS-FOTON,2009-003A,2026-06-05T22:37:48.829728,15.45486106,.0010447,82.4289,183.9871,185.6195,174.4938,0,U,33504,999,95936,.2966E-3,.14285E-3,0
CZ-2C R/B,2011-030B,2026-06-05T19:52:08.900256,14.81443762,.00537445,97.8650,112.4198,64.1900,351.3053,0,U,37731,999,80314,.19614547E-3,.1519E-4,0
H-2A R/B,2012-025E,2026-06-05T20:25:22.041120,14.95652724,.0044506,98.4817,131.0630,25.6164,334.7246,0,U,38341,999,76139,.33369E-3,.3714E-4,0
SHIJIAN-16 (SJ-16),2013-057A,2026-06-06T04:18:57.625632,14.92589180,.0016978,74.9732,17.5313,256.2516,103.6782,0,U,39358,999,68470,.1773E-3,.18E-4,0
ALOS-2,2014-029A,2026-06-06T04:23:00.059712,14.79465816,.000168,97.9213,254.5038,91.0466,269.0938,0,U,39766,999,64995,.22895E-3,.1659E-4,0
YAOGAN-29,2015-069A,2026-06-06T04:19:53.675040,14.83077533,.0002979,98.0027,185.7958,72.1349,288.0189,0,U,41038,999,56899,.10782E-3,.824E-5,0
ASTRO-H (HITOMI),2016-012A,2026-06-05T16:02:18.379392,15.10459953,.00095254,30.9975,148.5779,138.3181,221.8184,0,U,41337,999,56554,.13511952E-3,.2376E-4,0
HXMT (HUIYAN),2017-034A,2026-06-06T05:09:20.892096,15.18395354,.0030193,43.0133,244.1361,74.6102,285.8079,0,U,42758,999,49599,.28754E-3,.5851E-4,0
SAOCOM 1A,2018-076A,2026-06-06T04:47:02.466240,14.82164791,.0001517,97.8882,344.1074,78.0029,282.1355,0,U,43641,999,41447,.3021E-4,.188E-5,0
H-2A R/B,2018-084L,2026-06-05T09:43:25.493088,15.44683415,.00245087,98.8588,32.7243,79.9429,280.4578,0,U,43682,999,41930,.40480198E-3,.19E-3,0
SAOCOM 1B,2020-059A,2026-06-06T03:54:50.893920,14.82163372,.0001504,97.8886,343.1661,78.8645,281.2737,0,U,46265,999,31185,.86029E-4,.633E-5,0
CSS (TIANHE),2021-035A,2026-06-05T21:44:17.051424,15.60316714,.0009364,41.4692,30.6345,350.4262,9.6397,0,U,48274,999,29140,.3289E-3,.275E-3,0
COSMOS 2550,2021-056A,2026-06-06T04:47:14.970912,15.33724774,.0008688,67.1420,133.1424,266.9989,93.0171,0,U,48865,999,27703,.21282E-3,.6794E-4,0
GSLV R/B,2022-138AN,2026-06-05T11:43:20.064288,14.97203291,.00208488,87.3798,136.9131,184.9290,175.1740,0,U,54149,999,19706,.27889021E-3,.3266E-4,0
XRISM,2023-137A,2026-06-05T21:43:27.846624,15.12365717,.0007858,31.0020,72.6760,211.5991,148.4176,0,U,57800,999,15115,.30604E-3,.5543E-4,0
ACS3,2024-077B,2026-06-05T08:39:52.390656,13.93567814,.00453427,97.1690,77.7891,66.4054,294.1864,0,U,59588,999,10639,.31981064E-1,.42522E-3,0
