{"fetched_at":"2026-06-06T13:27:30Z","count":1118,"tles":[{"name":"CSS (TIANHE)","line1":"1 48274U 21035A   26156.90575291  .00027500  00000+0  32890-3 0  9992","line2":"2 48274  41.4692  30.6345 0009364 350.4262   9.6397 15.60316714291402","category":"Other"},{"name":"COSMO-SKYMED 1","line1":"1 31598U 07023A   26157.17352958  .00002464  00000+0  21903-3 0  9992","line2":"2 31598  97.8861 348.9377 0001364  81.4386 278.6989 14.97052439 28140","category":"Other"},{"name":"ALOS-2","line1":"1 39766U 14029A   26157.18263958  .00001659  00000+0  22895-3 0  9999","line2":"2 39766  97.9213 254.5038 0001680  91.0466 269.0938 14.79465816649953","category":"Other"},{"name":"COSMOS 2428","line1":"1 31792U 07029A   26156.81634082 -.00000181  00000+0 -71397-4 0  9994","line2":"2 31792  70.9378  18.3531 0007292 156.9125 203.2325 14.12930805976549","category":"Other"},{"name":"ASTRO-H (HITOMI)","line1":"1 41337U 16012A   26156.66826828  .00002376  00000+0  13512-3 0  9996","line2":"2 41337  30.9975 148.5779 0009525 138.3181 221.8184 15.10459953565543","category":"Other"},{"name":"CZ-2C R/B","line1":"1 37731U 11030B   26156.82788079  .00001519  00000+0  19615-3 0  9995","line2":"2 37731  97.8650 112.4198 0053744  64.1900 351.3053 14.81443762803143","category":"Other"},{"name":"GSLV R/B","line1":"1 54149U 22138AN  26156.48842667  .00003266  00000+0  27889-3 0  9997","line2":"2 54149  87.3798 136.9131 0020848 184.9290 175.1740 14.97203291197062","category":"Other"},{"name":"RESURS-DK 1","line1":"1 29228U 06021A   26156.86373247  .00002717  00000+0  15888-3 0  9991","line2":"2 29228  69.9335   8.8639 0006208 301.2031  58.8526 15.13165500100866","category":"Other"},{"name":"SHIJIAN-16 (SJ-16)","line1":"1 39358U 13057A   26157.17983363  .00001800  00000+0  17730-3 0  9994","line2":"2 39358  74.9732  17.5313 0016978 256.2516 103.6782 14.92589180684709","category":"Other"},{"name":"KORONAS-FOTON","line1":"1 33504U 09003A   26156.94292627  .00014285  00000+0  29660-3 0  9993","line2":"2 33504  82.4289 183.9871 0010447 185.6195 174.4938 15.45486106959366","category":"Other"},{"name":"COSMOS 2550","line1":"1 48865U 21056A   26157.19947883  .00006794  00000+0  21282-3 0  9998","line2":"2 48865  67.1420 133.1424 0008688 266.9989  93.0171 15.33724774277033","category":"Other"},{"name":"H-2A R/B","line1":"1 38341U 12025E   26156.85094955  .00003714  00000+0  33369-3 0  9995","line2":"2 38341  98.4817 131.0630 0044506  25.6164 334.7246 14.95652724761395","category":"Other"},{"name":"CZ-4B R/B","line1":"1 29507U 06046C   26156.38561117  .00004277  00000+0  21303-3 0  9992","line2":"2 29507  97.5456 201.0298 0031629 325.6747  34.2442 15.17693281 73347","category":"Other"},{"name":"H-2A R/B","line1":"1 43682U 18084L   26156.40515617  .00019000  00000+0  40480-3 0  9991","line2":"2 43682  98.8588  32.7243 0024508  79.9429 280.4578 15.44683415419303","category":"Other"},{"name":"SAOCOM 1B","line1":"1 46265U 20059A   26157.16308905  .00000633  00000+0  86029-4 0  9992","line2":"2 46265  97.8886 343.1661 0001504  78.8645 281.2737 14.82163372311858","category":"Other"},{"name":"YAOGAN-29","line1":"1 41038U 15069A   26157.18048235  .00000824  00000+0  10782-3 0  9993","line2":"2 41038  98.0027 185.7958 0002979  72.1349 288.0189 14.83077533568994","category":"Other"},{"name":"HXMT (HUIYAN)","line1":"1 42758U 17034A   26157.21482514  .00005851  00000+0  28754-3 0  9996","line2":"2 42758  43.0133 244.1361 0030193  74.6102 285.8079 15.18395354495998","category":"Other"},{"name":"ACS3","line1":"1 59588U 24077B   26156.36102304  .00042522  00000+0  31981-1 0  9991","line2":"2 59588  97.1690  77.7891 0045342  66.4054 294.1864 13.93567814106391","category":"Other"},{"name":"XRISM","line1":"1 57800U 23137A   26156.90518341  .00005543  00000+0  30604-3 0  9999","line2":"2 57800  31.0020  72.6760 0007858 211.5991 148.4176 15.12365717151154","category":"Other"},{"name":"SAOCOM 1A","line1":"1 43641U 18076A   26157.19933410  .00000188  00000+0  30210-4 0  9997","line2":"2 43641  97.8882 344.1074 0001517  78.0029 282.1355 14.82164791414474","category":"Other"}]}